CCSDS_OMM_VERS = 2.0
CREATION_DATE  = 
ORIGINATOR     = 

OBJECT_NAME    = STARLINK-37036
OBJECT_ID      = 2026-042J
CENTER_NAME    = EARTH
REF_FRAME      = TEME
TIME_SYSTEM    = UTC
MEAN_ELEMENT_THEORY = SGP/SGP4

EPOCH          = 2026-03-12T14:00:01.999872
MEAN_MOTION    = 15.94451179
ECCENTRICITY   = .00012469
INCLINATION    = 53.1596
RA_OF_ASC_NODE = 180.4335
ARG_OF_PERICENTER = 62.9780
MEAN_ANOMALY   = 101.9564

EPHEMERIS_TYPE = 0
CLASSIFICATION_TYPE = U
NORAD_CAT_ID   = 68077
ELEMENT_SET_NO = 999
REV_AT_EPOCH   = 251
BSTAR          = -.3872628E-2
MEAN_MOTION_DOT = -.1491762E-1
MEAN_MOTION_DDOT = .64901014E-3

CCSDS_OMM_VERS = 2.0
CREATION_DATE  = 
ORIGINATOR     = 

OBJECT_NAME    = STARLINK-36973
OBJECT_ID      = 2026-042K
CENTER_NAME    = EARTH
REF_FRAME      = TEME
TIME_SYSTEM    = UTC
MEAN_ELEMENT_THEORY = SGP/SGP4

EPOCH          = 2026-03-12T14:00:01.999872
MEAN_MOTION    = 15.94682735
ECCENTRICITY   = .00010925
INCLINATION    = 53.1597
RA_OF_ASC_NODE = 180.4229
ARG_OF_PERICENTER = 70.9248
MEAN_ANOMALY   = 99.0525

EPHEMERIS_TYPE = 0
CLASSIFICATION_TYPE = U
NORAD_CAT_ID   = 68078
ELEMENT_SET_NO = 999
REV_AT_EPOCH   = 251
BSTAR          = -.38105708E-2
MEAN_MOTION_DOT = -.1486187E-1
MEAN_MOTION_DDOT = .64608045E-3

CCSDS_OMM_VERS = 2.0
CREATION_DATE  = 
ORIGINATOR     = 

OBJECT_NAME    = STARLINK-37063
OBJECT_ID      = 2026-042L
CENTER_NAME    = EARTH
REF_FRAME      = TEME
TIME_SYSTEM    = UTC
MEAN_ELEMENT_THEORY = SGP/SGP4

EPOCH          = 2026-03-12T14:00:01.999872
MEAN_MOTION    = 15.94568015
ECCENTRICITY   = .00012902
INCLINATION    = 53.1592
RA_OF_ASC_NODE = 180.4287
ARG_OF_PERICENTER = 66.3938
MEAN_ANOMALY   = 100.8341

EPHEMERIS_TYPE = 0
CLASSIFICATION_TYPE = U
NORAD_CAT_ID   = 68079
ELEMENT_SET_NO = 999
REV_AT_EPOCH   = 251
BSTAR          = -.3839506E-2
MEAN_MOTION_DOT = -.1488319E-1
MEAN_MOTION_DDOT = .64702998E-3

CCSDS_OMM_VERS = 2.0
CREATION_DATE  = 
ORIGINATOR     = 

OBJECT_NAME    = STARLINK-37051
OBJECT_ID      = 2026-042M
CENTER_NAME    = EARTH
REF_FRAME      = TEME
TIME_SYSTEM    = UTC
MEAN_ELEMENT_THEORY = SGP/SGP4

EPOCH          = 2026-03-12T14:00:01.999872
MEAN_MOTION    = 15.94924444
ECCENTRICITY   = .00010865
INCLINATION    = 53.1594
RA_OF_ASC_NODE = 180.4124
ARG_OF_PERICENTER = 61.6518
MEAN_ANOMALY   = 113.4243

EPHEMERIS_TYPE = 0
CLASSIFICATION_TYPE = U
NORAD_CAT_ID   = 68080
ELEMENT_SET_NO = 999
REV_AT_EPOCH   = 251
BSTAR          = -.37872344E-2
MEAN_MOTION_DOT = -.149622E-1
MEAN_MOTION_DDOT = .65568356E-3

CCSDS_OMM_VERS = 2.0
CREATION_DATE  = 
ORIGINATOR     = 

OBJECT_NAME    = STARLINK-37066
OBJECT_ID      = 2026-042N
CENTER_NAME    = EARTH
REF_FRAME      = TEME
TIME_SYSTEM    = UTC
MEAN_ELEMENT_THEORY = SGP/SGP4

EPOCH          = 2026-03-12T14:00:01.999872
MEAN_MOTION    = 15.94803695
ECCENTRICITY   = .00012482
INCLINATION    = 53.1599
RA_OF_ASC_NODE = 180.4176
ARG_OF_PERICENTER = 67.4525
MEAN_ANOMALY   = 105.1774

EPHEMERIS_TYPE = 0
CLASSIFICATION_TYPE = U
NORAD_CAT_ID   = 68081
ELEMENT_SET_NO = 999
REV_AT_EPOCH   = 251
BSTAR          = -.38024548E-2
MEAN_MOTION_DOT = -.1492607E-1
MEAN_MOTION_DDOT = .65199251E-3

CCSDS_OMM_VERS = 2.0
CREATION_DATE  = 
ORIGINATOR     = 

OBJECT_NAME    = STARLINK-37054
OBJECT_ID      = 2026-042P
CENTER_NAME    = EARTH
REF_FRAME      = TEME
TIME_SYSTEM    = UTC
MEAN_ELEMENT_THEORY = SGP/SGP4

EPOCH          = 2026-03-12T14:00:01.999872
MEAN_MOTION    = 15.95035967
ECCENTRICITY   = .00012199
INCLINATION    = 53.1594
RA_OF_ASC_NODE = 180.4079
ARG_OF_PERICENTER = 66.1080
MEAN_ANOMALY   = 111.1866

EPHEMERIS_TYPE = 0
CLASSIFICATION_TYPE = U
NORAD_CAT_ID   = 68082
ELEMENT_SET_NO = 999
REV_AT_EPOCH   = 251
BSTAR          = -.37401498E-2
MEAN_MOTION_DOT = -.1486646E-1
MEAN_MOTION_DDOT = .64875614E-3

CCSDS_OMM_VERS = 2.0
CREATION_DATE  = 
ORIGINATOR     = 

OBJECT_NAME    = STARLINK-37065
OBJECT_ID      = 2026-042Q
CENTER_NAME    = EARTH
REF_FRAME      = TEME
TIME_SYSTEM    = UTC
MEAN_ELEMENT_THEORY = SGP/SGP4

EPOCH          = 2026-03-12T14:00:01.999872
MEAN_MOTION    = 15.95152716
ECCENTRICITY   = .00011733
INCLINATION    = 53.1597
RA_OF_ASC_NODE = 180.4028
ARG_OF_PERICENTER = 67.6094
MEAN_ANOMALY   = 112.1509

EPHEMERIS_TYPE = 0
CLASSIFICATION_TYPE = U
NORAD_CAT_ID   = 68083
ELEMENT_SET_NO = 999
REV_AT_EPOCH   = 251
BSTAR          = -.3714284E-2
MEAN_MOTION_DOT = -.1485671E-1
MEAN_MOTION_DDOT = .64874444E-3

CCSDS_OMM_VERS = 2.0
CREATION_DATE  = 
ORIGINATOR     = 

OBJECT_NAME    = STARLINK-37037
OBJECT_ID      = 2026-042R
CENTER_NAME    = EARTH
REF_FRAME      = TEME
TIME_SYSTEM    = UTC
MEAN_ELEMENT_THEORY = SGP/SGP4

EPOCH          = 2026-03-12T14:00:01.999872
MEAN_MOTION    = 15.95271941
ECCENTRICITY   = .00011185
INCLINATION    = 53.1592
RA_OF_ASC_NODE = 180.3974
ARG_OF_PERICENTER = 67.3735
MEAN_ANOMALY   = 115.0078

EPHEMERIS_TYPE = 0
CLASSIFICATION_TYPE = U
NORAD_CAT_ID   = 68084
ELEMENT_SET_NO = 999
REV_AT_EPOCH   = 251
BSTAR          = -.36986449E-2
MEAN_MOTION_DOT = -.1488899E-1
MEAN_MOTION_DDOT = .65211467E-3

CCSDS_OMM_VERS = 2.0
CREATION_DATE  = 
ORIGINATOR     = 

OBJECT_NAME    = STARLINK-37068
OBJECT_ID      = 2026-042S
CENTER_NAME    = EARTH
REF_FRAME      = TEME
TIME_SYSTEM    = UTC
MEAN_ELEMENT_THEORY = SGP/SGP4

EPOCH          = 2026-03-12T14:00:01.999872
MEAN_MOTION    = 15.95386927
ECCENTRICITY   = .00013106
INCLINATION    = 53.1592
RA_OF_ASC_NODE = 180.3934
ARG_OF_PERICENTER = 68.9274
MEAN_ANOMALY   = 115.3979

EPHEMERIS_TYPE = 0
CLASSIFICATION_TYPE = U
NORAD_CAT_ID   = 68085
ELEMENT_SET_NO = 999
REV_AT_EPOCH   = 251
BSTAR          = -.36684059E-2
MEAN_MOTION_DOT = -.148599E-1
MEAN_MOTION_DDOT = .65054451E-3

CCSDS_OMM_VERS = 2.0
CREATION_DATE  = 
ORIGINATOR     = 

OBJECT_NAME    = STARLINK-37067
OBJECT_ID      = 2026-042T
CENTER_NAME    = EARTH
REF_FRAME      = TEME
TIME_SYSTEM    = UTC
MEAN_ELEMENT_THEORY = SGP/SGP4

EPOCH          = 2026-03-12T14:00:01.999872
MEAN_MOTION    = 15.95507548
ECCENTRICITY   = .00012279
INCLINATION    = 53.1594
RA_OF_ASC_NODE = 180.3876
ARG_OF_PERICENTER = 65.2023
MEAN_ANOMALY   = 121.9422

EPHEMERIS_TYPE = 0
CLASSIFICATION_TYPE = U
NORAD_CAT_ID   = 68086
ELEMENT_SET_NO = 999
REV_AT_EPOCH   = 251
BSTAR          = -.36661892E-2
MEAN_MOTION_DOT = -.1494672E-1
MEAN_MOTION_DDOT = .65832733E-3

CCSDS_OMM_VERS = 2.0
CREATION_DATE  = 
ORIGINATOR     = 

OBJECT_NAME    = STARLINK-37062
OBJECT_ID      = 2026-042U
CENTER_NAME    = EARTH
REF_FRAME      = TEME
TIME_SYSTEM    = UTC
MEAN_ELEMENT_THEORY = SGP/SGP4

EPOCH          = 2026-03-12T14:00:01.999872
MEAN_MOTION    = 15.95621004
ECCENTRICITY   = .00012587
INCLINATION    = 53.1594
RA_OF_ASC_NODE = 180.3824
ARG_OF_PERICENTER = 66.5503
MEAN_ANOMALY   = 123.0504

EPHEMERIS_TYPE = 0
CLASSIFICATION_TYPE = U
NORAD_CAT_ID   = 68087
ELEMENT_SET_NO = 999
REV_AT_EPOCH   = 251
BSTAR          = -.36344125E-2
MEAN_MOTION_DOT = -.1490896E-1
MEAN_MOTION_DDOT = .65604439E-3

CCSDS_OMM_VERS = 2.0
CREATION_DATE  = 
ORIGINATOR     = 

OBJECT_NAME    = STARLINK-37059
OBJECT_ID      = 2026-042V
CENTER_NAME    = EARTH
REF_FRAME      = TEME
TIME_SYSTEM    = UTC
MEAN_ELEMENT_THEORY = SGP/SGP4

EPOCH          = 2026-03-12T14:00:01.999872
MEAN_MOTION    = 15.95738970
ECCENTRICITY   = .00012764
INCLINATION    = 53.1593
RA_OF_ASC_NODE = 180.3768
ARG_OF_PERICENTER = 63.7889
MEAN_ANOMALY   = 128.5172

EPHEMERIS_TYPE = 0
CLASSIFICATION_TYPE = U
NORAD_CAT_ID   = 68088
ELEMENT_SET_NO = 999
REV_AT_EPOCH   = 251
BSTAR          = -.36221356E-2
MEAN_MOTION_DOT = -.1495333E-1
MEAN_MOTION_DDOT = .660419E-3

